NORAD_CAT_ID,OBJECT_NAME,OBJECT_TYPE,EPOCH,MEAN_MOTION,ECCENTRICITY,INCLINATION,RA_OF_ASC_NODE,ARG_OF_PERICENTER,MEAN_ANOMALY,BSTAR,MEAN_MOTION_DOT,MEAN_MOTION_DDOT,TLE_LINE0,TLE_LINE1,TLE_LINE2,SEMIMAJOR_AXIS,PERIOD,APOGEE,PERIGEE,DECAYED
55421.0,STARLINK-5598,PAYLOAD,2024-04-14 20:39:11,14.98333966,0.0002384,70.0027,33.8344,250.302,109.7882,-1.961e-05,-3.27e-06,0.0,0 STARLINK-5598,1 55421U 23014AG  24105.86054721 -.00000327  00000-0 -19610-4 0  9997,2 55421  70.0027  33.8344 0002384 250.3020 109.7882 14.98333966 67638,6950.181,96.107,573.703,570.389,0.0
55421.0,STARLINK-5598,PAYLOAD,2024-04-14 22:15:19,14.98333549,0.00024,70.0027,33.6662,249.8767,110.2134,-2.3856e-05,-3.78e-06,0.0,0 STARLINK-5598,1 55421U 23014AG  24105.92730737 -.00000378  00000-0 -23856-4 0  9995,2 55421  70.0027  33.6662 0002400 249.8767 110.2134 14.98333549 67644,6950.182,96.107,573.715,570.379,0.0
55421.0,STARLINK-5598,PAYLOAD,2024-04-15 04:39:51,14.98334321,0.0002388,70.0029,32.9931,246.9539,113.1369,-1.1315e-05,-2.28e-06,0.0,0 STARLINK-5598,1 55421U 23014AG  24106.19434585 -.00000228  00000-0 -11315-4 0  9998,2 55421  70.0029  32.9931 0002388 246.9539 113.1369 14.98334321 67682,6950.18,96.107,573.704,570.385,0.0
55421.0,STARLINK-5598,PAYLOAD,2024-04-15 20:41:12,14.98327451,0.000253,70.0022,31.3081,258.4913,101.5962,-1.0539e-05,-2.19e-06,0.0,0 STARLINK-5598,1 55421U 23014AG  24106.86194966 -.00000219  00000-0 -10539-4 0  9995,2 55421  70.0022  31.3081 0002530 258.4913 101.5962 14.98327451 67784,6950.201,96.107,573.824,570.307,0.0
55421.0,STARLINK-5598,PAYLOAD,2024-04-16 12:42:32,14.98334655,0.0002687,70.0027,29.6233,268.2552,91.83,5.4816e-05,5.61e-06,0.0,0 STARLINK-5598,1 55421U 23014AG  24107.52954312  .00000561  00000-0  54816-4 0  9992,2 55421  70.0027  29.6233 0002687 268.2552  91.8300 14.98334655 67881,6950.178,96.107,573.911,570.176,0.0
55421.0,STARLINK-5598,PAYLOAD,2024-04-16 22:19:20,14.98336641,0.0002624,70.0024,28.6134,265.2183,94.8677,0.00011488,1.278e-05,0.0,0 STARLINK-5598,1 55421U 23014AG  24107.93009803  .00001278  00000-0  11488-3 0  9996,2 55421  70.0024  28.6134 0002624 265.2183  94.8677 14.98336641 67949,6950.172,96.107,573.861,570.214,0.0
55421.0,STARLINK-5598,PAYLOAD,2024-04-17 04:43:51,14.98348992,0.0002581,70.0022,27.9401,264.9285,95.1579,0.0002093,2.406e-05,0.0,0 STARLINK-5598,1 55421U 23014AG  24108.19712554  .00002406  00000-0  20930-3 0  9995,2 55421  70.0022  27.9401 0002581 264.9285  95.1579 14.98348992 67988,6950.134,96.106,573.793,570.205,0.0
55421.0,STARLINK-5598,PAYLOAD,2024-04-17 20:45:12,14.98336784,0.0003768,70.0012,26.2576,262.5996,97.4735,0.00012121,1.354e-05,0.0,0 STARLINK-5598,1 55421U 23014AG  24108.86472574  .00001354  00000-0  12121-3 0  9998,2 55421  70.0012  26.2576 0003768 262.5996  97.4735 14.98336784 68080,6950.172,96.107,574.656,569.418,0.0
55421.0,STARLINK-5598,PAYLOAD,2024-04-18 03:09:46,14.9832006,0.0002958,70.0022,25.5842,273.99,86.0921,-0.00017307,-2.157e-05,0.0,0 STARLINK-5598,1 55421U 23014AG  24109.13178642 -.00002157  00000-0 -17307-3 0  9993,2 55421  70.0022  25.5842 0002958 273.9900  86.0921 14.98320060 68126,6950.224,96.108,574.145,570.033,0.0
55421.0,STARLINK-5598,PAYLOAD,2024-04-18 04:45:54,14.98322771,0.0003071,70.002,25.4158,274.7556,85.3252,-0.00014085,-1.773e-05,0.0,0 STARLINK-5598,1 55421U 23014AG  24109.19854388 -.00001773  00000-0 -14085-3 0  9990,2 55421  70.0020  25.4158 0003071 274.7556  85.3252 14.98322771 68137,6950.215,96.107,574.215,569.946,0.0
55421.0,STARLINK-5598,PAYLOAD,2024-04-18 20:47:15,14.98321994,0.0002952,70.0023,23.7339,271.8105,88.2716,-0.00021655,-2.675e-05,0.0,0 STARLINK-5598,1 55421U 23014AG  24109.86614865 -.00002675  00000-0 -21655-3 0  9991,2 55421  70.0023  23.7339 0002952 271.8105  88.2716 14.98321994 68231,6950.218,96.108,574.134,570.031,0.0
55421.0,STARLINK-5598,PAYLOAD,2024-04-19 04:47:55,14.98330608,0.0002639,70.003,22.8947,257.0059,103.0806,-0.00017202,-2.145e-05,0.0,0 STARLINK-5598,1 55421U 23014AG  24110.19994221 -.00002145  00000-0 -17202-3 0  9991,2 55421  70.0030  22.8947 0002639 257.0059 103.0806 14.98330608 68283,6950.191,96.107,573.89,570.222,0.0
55421.0,STARLINK-5598,PAYLOAD,2024-04-19 22:25:23,14.98318732,0.0002819,70.003,21.0421,260.6047,99.4793,0.00017953,2.049e-05,0.0,0 STARLINK-5598,1 55421U 23014AG  24110.93429911  .00002049  00000-0  17953-3 0  9996,2 55421  70.0030  21.0421 0002819 260.6047  99.4793 14.98318732 68397,6950.228,96.108,574.052,570.133,0.0
55421.0,STARLINK-5598,PAYLOAD,2024-04-20 03:13:46,14.98336449,0.000295,70.0026,20.5385,247.5881,112.4966,0.00035055,4.093e-05,0.0,0 STARLINK-5598,1 55421U 23014AG  24111.13456301  .00004093  00000-0  35055-3 0  9996,2 55421  70.0026  20.5385 0002950 247.5881 112.4966 14.98336449 68428,6950.173,96.107,574.088,569.988,0.0
55421.0,STARLINK-5598,PAYLOAD,2024-04-20 19:15:09,14.98311466,0.0003114,70.0025,18.8543,273.0225,87.0578,-7.0651e-05,-9.35e-06,0.0,0 STARLINK-5598,1 55421U 23014AG  24111.80219656 -.00000935  00000-0 -70651-4 0  9995,2 55421  70.0025  18.8543 0003114 273.0225  87.0578 14.98311466 68521,6950.25,96.108,574.28,569.951,0.0
55421.0,STARLINK-5598,PAYLOAD,2024-04-20 20:51:17,14.98312101,0.0003143,70.0021,18.6851,272.0883,87.9916,-8.8839e-05,-1.152e-05,0.0,0 STARLINK-5598,1 55421U 23014AG  24111.86895725 -.00001152  00000-0 -88839-4 0  9997,2 55421  70.0021  18.6851 0003143 272.0883  87.9916 14.98312101 68531,6950.248,96.108,574.298,569.929,0.0
55421.0,STARLINK-5598,PAYLOAD,2024-04-21 03:15:50,14.9831196,0.0003368,70.001,18.0108,273.5918,86.4856,-0.00010308,-1.322e-05,0.0,0 STARLINK-5598,1 55421U 23014AG  24112.13600056 -.00001322  00000-0 -10308-3 0  9993,2 55421  70.0010  18.0108 0003368 273.5918  86.4856 14.98311960 68575,6950.249,96.108,574.455,569.773,0.0
55421.0,STARLINK-5598,PAYLOAD,2024-04-21 19:17:10,14.98333813,0.0003123,70.0008,16.3262,277.3989,82.6815,-6.4512e-05,-8.63e-06,0.0,0 STARLINK-5598,1 55421U 23014AG  24112.80359041 -.00000863  00000-0 -64512-4 0  9998,2 55421  70.0008  16.3262 0003123 277.3989  82.6815 14.98333813 68678,6950.181,96.107,574.217,569.876,0.0
55421.0,STARLINK-5598,PAYLOAD,2024-04-21 22:29:26,14.98333736,0.0002803,70.0013,15.9888,274.0126,86.0712,-2.5274e-05,-3.95e-06,0.0,0 STARLINK-5598,1 55421U 23014AG  24112.93710918 -.00000395  00000-0 -25274-4 0  9998,2 55421  70.0013  15.9888 0002803 274.0126  86.0712 14.98333736 68694,6950.181,96.107,573.994,570.098,0.0
55421.0,STARLINK-5598,PAYLOAD,2024-04-22 03:17:49,14.98349365,0.0002434,70.0028,15.4892,256.6267,103.4621,7.7559e-05,8.33e-06,0.0,0 STARLINK-5598,1 55421U 23014AG  24113.13737508  .00000833  00000-0  77559-4 0  9993,2 55421  70.0028  15.4892 0002434 256.6267 103.4621 14.98349365 68724,6950.133,96.106,573.69,570.306,0.0
55421.0,STARLINK-5598,PAYLOAD,2024-04-22 20:55:19,14.98315431,0.0002997,70.0012,13.6346,276.984,83.0979,0.00011514,1.281e-05,0.0,0 STARLINK-5598,1 55421U 23014AG  24113.87175481  .00001281  00000-0  11514-3 0  9996,2 55421  70.0012  13.6346 0002997 276.9840  83.0979 14.98315431 68835,6950.238,96.108,574.186,570.02,0.0
55421.0,STARLINK-5598,PAYLOAD,2024-04-22 22:31:27,14.98310724,0.000286,70.0029,13.469,274.4892,85.594,0.00015596,1.767e-05,0.0,0 STARLINK-5598,1 55421U 23014AG  24113.93851776  .00001767  00000-0  15596-3 0  9994,2 55421  70.0029  13.4690 0002860 274.4892  85.5940 14.98310724 68848,6950.253,96.108,574.105,570.13,0.0
55421.0,STARLINK-5598,PAYLOAD,2024-04-23 03:19:51,14.98316379,0.0002783,70.0022,12.9635,271.9838,88.1003,0.00018939,2.167e-05,0.0,0 STARLINK-5598,1 55421U 23014AG  24114.13879491  .00002167  00000-0  18939-3 0  9990,2 55421  70.0022  12.9635 0002783 271.9838  88.1003 14.98316379 68874,6950.235,96.108,574.034,570.166,0.0
55421.0,STARLINK-5598,PAYLOAD,2024-04-23 20:57:20,14.98336792,0.0002927,70.0022,11.1128,259.1028,100.9802,-7.8815e-05,-1.033e-05,0.0,0 STARLINK-5598,1 55421U 23014AG  24114.87314936 -.00001033  00000-0 -78815-4 0  9992,2 55421  70.0022  11.1128 0002927 259.1028 100.9802 14.98336792 68984,6950.172,96.107,574.071,570.003,0.0
55421.0,STARLINK-5598,PAYLOAD,2024-04-23 22:33:28,14.98335257,0.0002828,70.0021,10.943,256.664,103.4204,-7.5586e-05,-9.95e-06,0.0,0 STARLINK-5598,1 55421U 23014AG  24114.93990952 -.00000995  00000-0 -75586-4 0  9995,2 55421  70.0021  10.9430 0002828 256.6640 103.4204 14.98335257 68998,6950.177,96.107,574.007,570.076,0.0
55421.0,STARLINK-5598,PAYLOAD,2024-04-24 03:21:52,14.98338648,0.0002728,70.0023,10.4387,254.7567,105.3291,-3.8313e-05,-5.5e-06,0.0,0 STARLINK-5598,1 55421U 23014AG  24115.14018529 -.00000550  00000-0 -38313-4 0  9994,2 55421  70.0023  10.4387 0002728 254.7567 105.3291 14.98338648 69021,6950.166,96.106,573.927,570.135,0.0
55421.0,STARLINK-5598,PAYLOAD,2024-04-24 20:59:21,14.98322271,0.0002151,70.0026,8.5878,229.261,130.8362,0.00015331,1.736e-05,0.0,0 STARLINK-5598,1 55421U 23014AG  24115.87454966  .00001736  00000-0  15331-3 0  9992,2 55421  70.0026   8.5878 0002151 229.2610 130.8362 14.98322271 69132,6950.217,96.107,573.577,570.587,0.0
55421.0,STARLINK-5598,PAYLOAD,2024-04-24 22:35:29,14.98325838,0.0002315,70.0017,8.4173,257.5626,102.5274,4.2751e-05,4.17e-06,0.0,0 STARLINK-5598,1 55421U 23014AG  24115.94131167  .00000417  00000-0  42751-4 0  9997,2 55421  70.0017   8.4173 0002315 257.5626 102.5274 14.98325838 69143,6950.206,96.107,573.68,570.462,0.0
55421.0,STARLINK-5598,PAYLOAD,2024-04-25 01:47:45,14.98327106,0.0001879,70.0028,8.0815,234.6124,125.4859,9.0468e-05,9.87e-06,0.0,0 STARLINK-5598,1 55421U 23014AG  24116.07482961  .00000987  00000-0  90468-4 0  9993,2 55421  70.0028   8.0815 0001879 234.6124 125.4859 14.98327106 69162,6950.202,96.107,573.373,570.761,0.0
55421.0,STARLINK-5598,PAYLOAD,2024-04-25 21:01:21,14.98328509,0.0002733,70.0025,6.0624,247.3387,112.7483,1.4997e-05,8.6e-07,0.0,0 STARLINK-5598,1 55421U 23014AG  24116.87594897  .00000086  00000-0  14997-4 0  9996,2 55421  70.0025   6.0624 0002733 247.3387 112.7483 14.98328509 69280,6950.198,96.107,573.962,570.163,0.0
